{
    "links": {
        "self": "http://www.neowsapp.com/rest/v1/neo/3750675?api_key=iIulBulltgU6a56xZRHN4H3l9WmuAYTsLGpBGhQ2"
    },
    "id": "3750675",
    "neo_reference_id": "3750675",
    "name": "(2016 GJ135)",
    "designation": "2016 GJ135",
    "nasa_jpl_url": "http://ssd.jpl.nasa.gov/sbdb.cgi?sstr=3750675",
    "absolute_magnitude_h": 25.0,
    "estimated_diameter": {
        "kilometers": {
            "estimated_diameter_min": 0.02658,
            "estimated_diameter_max": 0.0594346868
        },
        "meters": {
            "estimated_diameter_min": 26.58,
            "estimated_diameter_max": 59.4346868419
        },
        "miles": {
            "estimated_diameter_min": 0.0165160412,
            "estimated_diameter_max": 0.0369309908
        },
        "feet": {
            "estimated_diameter_min": 87.2047272,
            "estimated_diameter_max": 194.9956979785
        }
    },
    "is_potentially_hazardous_asteroid": false,
    "close_approach_data": [
        {
            "close_approach_date": "2016-03-18",
            "close_approach_date_full": "2016-Mar-18 18:00",
            "epoch_date_close_approach": 1458324000000,
            "relative_velocity": {
                "kilometers_per_second": "8.4614315505",
                "kilometers_per_hour": "30461.1535816717",
                "miles_per_hour": "18927.3762352337"
            },
            "miss_distance": {
                "astronomical": "0.0524025375",
                "lunar": "20.3845870875",
                "kilometers": "7839307.992595125",
                "miles": "4871120.109757725"
            },
            "orbiting_body": "Earth"
        },
        {
            "close_approach_date": "2139-04-20",
            "close_approach_date_full": "2139-Apr-20 12:57",
            "epoch_date_close_approach": 5342590620000,
            "relative_velocity": {
                "kilometers_per_second": "18.127596159",
                "kilometers_per_hour": "65259.3461724904",
                "miles_per_hour": "40549.6198481232"
            },
            "miss_distance": {
                "astronomical": "0.3887274298",
                "lunar": "151.2149701922",
                "kilometers": "58152795.508654526",
                "miles": "36134471.5513674188"
            },
            "orbiting_body": "Earth"
        }
    ],
    "orbital_data": {
        "orbit_id": "5",
        "orbit_determination_date": "2017-04-06 08:26:41",
        "first_observation_date": "2016-04-05",
        "last_observation_date": "2016-04-14",
        "data_arc_in_days": 9,
        "observations_used": 18,
        "orbit_uncertainty": "8",
        "minimum_orbit_intersection": ".0522017",
        "jupiter_tisserand_invariant": "3.792",
        "epoch_osculation": "2457485.5",
        "eccentricity": ".4658111505630778",
        "semi_major_axis": "1.899669398180783",
        "inclination": "9.910864988048491",
        "ascending_node_longitude": "187.0518289753141",
        "orbital_period": "956.346927555135",
        "perihelion_distance": "1.014782210124723",
        "perihelion_argument": "328.4613080937054",
        "aphelion_distance": "2.784556586236843",
        "perihelion_time": "2457446.686425492257",
        "mean_anomaly": "14.61068825568211",
        "mean_motion": ".376432432234949",
        "equinox": "J2000",
        "orbit_class": {
            "orbit_class_type": "APO",
            "orbit_class_description": "Near-Earth asteroid orbits which cross the Earth’s orbit similar to that of 1862 Apollo",
            "orbit_class_range": "a (semi-major axis) > 1.0 AU; q (perihelion) < 1.017 AU"
        }
    },
    "is_sentry_object": false
}